NORAD_CAT_ID,OBJECT_NAME,OBJECT_TYPE,EPOCH,MEAN_MOTION,ECCENTRICITY,INCLINATION,RA_OF_ASC_NODE,ARG_OF_PERICENTER,MEAN_ANOMALY,BSTAR,MEAN_MOTION_DOT,MEAN_MOTION_DDOT,TLE_LINE0,TLE_LINE1,TLE_LINE2,SEMIMAJOR_AXIS,PERIOD,APOGEE,PERIGEE,DECAYED
51743.0,STARLINK-3512,PAYLOAD,2022-05-29 22:12:33,15.25377142,0.0001987,53.216,23.7795,73.4487,286.6731,-0.013219,-0.00323912,0.0,0 STARLINK-3512,1 51743U 22016AF  22149.92539228 -.00323912  00000-0 -13219-1 0  9998,2 51743  53.2160  23.7795 0001987  73.4487 286.6731 15.25377142 15398,6867.79,94.403,491.02,488.291,0.0
51743.0,STARLINK-3512,PAYLOAD,2022-05-30 14:00:01,15.23346079,0.0001634,53.2166,20.7254,50.4746,321.3201,-0.024278,-0.00548924,0.0,0 STARLINK-3512,1 51743U 22016AF  22150.58334491 -.00548924  00000-0 -24278-1 0  9996,2 51743  53.2166  20.7254 0001634  50.4746 321.3201 15.23346079 16622,6873.893,94.529,496.882,494.635,0.0
51743.0,STARLINK-3512,PAYLOAD,2022-05-30 21:49:24,15.23771311,0.0001904,53.2148,19.2466,85.8546,274.2671,-0.01471,-0.00342603,0.0,0 STARLINK-3512,1 51743U 22016AF  22150.90930982 -.00342603  00000-0 -14710-1 0  9995,2 51743  53.2148  19.2466 0001904  85.8546 274.2671 15.23771311 16673,6872.614000000001,94.502,495.788,493.171,0.0
51743.0,STARLINK-3512,PAYLOAD,2022-05-31 06:00:02,15.22457047,0.0001415,53.2172,17.6613,52.8006,16.1173,-0.033157,-0.00724439,0.0,0 STARLINK-3512,1 51743U 22016AF  22151.25002315 -.00724439  00000-0 -33157-1 0  9991,2 51743  53.2172  17.6613 0001415  52.8006  16.1173 15.22457047 16731,6876.569,94.584,499.407,497.461,0.0
51743.0,STARLINK-3512,PAYLOAD,2022-05-31 21:27:20,15.22860639,0.0001554,53.2156,14.7307,53.5698,306.5443,-0.0093624,-0.00215981,0.0,0 STARLINK-3512,1 51743U 22016AF  22151.89399203 -.00215981  00000-0 -93624-2 0  9999,2 51743  53.2156  14.7307 0001554  53.5698 306.5443 15.22860639 16821,6875.354,94.559,498.287,496.151,0.0
51743.0,STARLINK-3512,PAYLOAD,2022-06-01 06:00:00,15.20926595,0.0001539,53.2172,13.0743,54.2467,95.7132,-0.034633,-0.0072331,0.0,0 STARLINK-3512,1 51743U 22016AF  22152.25001157 -.00723310  00000-0 -34633-1 0  9992,2 51743  53.2172  13.0743 0001539  54.2467  95.7132 15.20926595 16880,6881.181,94.679,504.105,501.987,0.0
51743.0,STARLINK-3512,PAYLOAD,2022-06-01 20:00:01,15.20034246,0.0001753,53.2172,10.404000000000002,42.0591,62.665,-0.035579,-0.00723842,0.0,0 STARLINK-3512,1 51743U 22016AF  22152.83334491 -.00723842  00000-0 -35579-1 0  9996,2 51743  53.2172  10.4040 0001753  42.0591  62.6650 15.20034246  1304,6883.874,94.735,506.946,504.532,0.0
51743.0,STARLINK-3512,PAYLOAD,2022-06-02 20:48:16,15.19486669,0.0003065,53.2162,5.7059,74.0235,286.11,-0.014137,-0.0029224,0.0,0 STARLINK-3512,1 51743U 22016AF  22153.86686004 -.00292240  00000-0 -14137-1 0  9990,2 51743  53.2162   5.7059 0003065  74.0235 286.1100 15.19486669 17126,6885.528,94.769,509.503,505.283,0.0
51743.0,STARLINK-3512,PAYLOAD,2022-06-03 01:33:10,15.19364623,0.0002431,53.2165,4.8071,45.8022,314.3175,-0.011093,-0.00230469,0.0,0 STARLINK-3512,1 51743U 22016AF  22154.06470784 -.00230469  00000-0 -11093-1 0  9992,2 51743  53.2165   4.8071 0002431  45.8022 314.3175 15.19364623 17153,6885.897,94.776,509.436,506.088,0.0
51743.0,STARLINK-3512,PAYLOAD,2022-06-03 15:46:40,15.18313251,0.0002077,53.2197,2.1024,3.5782,356.5229,-0.0091916,-0.00186398,0.0,0 STARLINK-3512,1 51743U 22016AF  22154.65740902 -.00186398  00000-0 -91916-2 0  9993,2 51743  53.2197   2.1024 0002077   3.5782 356.5229 15.18313251 17245,6889.075,94.842,512.371,509.509,0.0
51743.0,STARLINK-3512,PAYLOAD,2022-06-04 04:25:38,15.17708756,0.0002907,53.2183,359.7058,10.0958,350.0096,-0.010912,-0.00216538,0.0,0 STARLINK-3512,1 51743U 22016AF  22155.18447751 -.00216538  00000-0 -10912-1 0  9994,2 51743  53.2183 359.7058 0002907  10.0958 350.0096 15.17708756 17325,6890.904,94.88,514.7719999999998,510.766,0.0
51743.0,STARLINK-3512,PAYLOAD,2022-06-04 13:55:06,15.17198834,0.0001106,53.2166,357.9074,46.32899999999999,313.7798,-0.010877,-0.00212775,0.0,0 STARLINK-3512,1 51743U 22016AF  22155.57993582 -.00212775  00000-0 -10877-1 0  9994,2 51743  53.2166 357.9074 0001106  46.3290 313.7798 15.17198834 16251,6892.448,94.912,515.075,513.5509999999998,0.0
51743.0,STARLINK-3512,PAYLOAD,2022-06-05 22:00:00,15.13787194,0.0001681,53.2175,351.8112,46.2401,49.2881,-0.042592,-0.0072396,0.0,0 STARLINK-3512,1 51743U 22016AF  22156.91667824 -.00723960  00000-0 -42592-1 0  9992,2 51743  53.2175 351.8112 0001681  46.2401  49.2881 15.13787194 17599,6902.8,95.126,525.825,523.505,0.0
51743.0,STARLINK-3512,PAYLOAD,2022-06-06 14:00:01,15.12766068,0.0001689,53.2176,348.7907,47.7467,81.6308,-0.043663,-0.00721298,0.0,0 STARLINK-3512,1 51743U 22016AF  22157.58334491 -.00721298  00000-0 -43663-1 0  9999,2 51743  53.2176 348.7907 0001689  47.7467  81.6308 15.12766068  1305,6905.906,95.19,528.937,526.605,0.0
51743.0,STARLINK-3512,PAYLOAD,2022-06-06 22:00:00,15.1225576,0.0001671,53.2175,347.2848,52.2732,93.1085,-0.044298,-0.00721372,0.0,0 STARLINK-3512,1 51743U 22016AF  22157.91667824 -.00721372  00000-0 -44298-1 0  9993,2 51743  53.2175 347.2848 0001671  52.2732  93.1085 15.12255760  1301,6907.459,95.222,530.479,528.17,0.0
51743.0,STARLINK-3512,PAYLOAD,2022-06-07 06:00:00,15.11746772,0.0001617,53.2174,345.777,53.2356,107.5385,-0.045004,-0.00722418,0.0,0 STARLINK-3512,1 51743U 22016AF  22158.25001157 -.00722418  00000-0 -45004-1 0  9990,2 51743  53.2174 345.7770 0001617  53.2356 107.5385 15.11746772 17790,6909.01,95.254,531.992,529.758,0.0
51743.0,STARLINK-3512,PAYLOAD,2022-06-07 14:00:01,15.11236184,0.0001815,53.2177,344.2717,45.3005,130.2531,-0.045578,-0.00721375,0.0,0 STARLINK-3512,1 51743U 22016AF  22158.58334491 -.00721375  00000-0 -45578-1 0  9993,2 51743  53.2177 344.2717 0001815  45.3005 130.2531 15.11236184  1308,6910.566,95.286,533.685,531.177,0.0
51743.0,STARLINK-3512,PAYLOAD,2022-06-07 22:00:00,15.10724421,0.0001721999999999,53.2176,342.7692,51.2406,138.4794,-0.04605,-0.00718716,0.0,0 STARLINK-3512,1 51743U 22016AF  22158.91667824 -.00718716  00000-0 -46050-1 0  9990,2 51743  53.2176 342.7692 0001722  51.2406 138.4794 15.10724421  1306,6912.126,95.319,535.182,532.8009999999998,0.0
51743.0,STARLINK-3512,PAYLOAD,2022-06-08 06:00:02,15.10216599,0.0001628,53.2175,341.2647,55.3512,147.9853,-0.046919,-0.00721791,0.0,0 STARLINK-3512,1 51743U 22016AF  22159.25002315 -.00721791  00000-0 -46919-1 0  9997,2 51743  53.2175 341.2647 0001628  55.3512 147.9853 15.10216599 17947,6913.676,95.351,536.6659999999998,534.415,0.0
51743.0,STARLINK-3512,PAYLOAD,2022-06-08 14:00:01,15.09706813,0.0001727,53.2177,339.7637,51.1343,165.08,-0.047648,-0.00722677,0.0,0 STARLINK-3512,1 51743U 22016AF  22159.58334491 -.00722677  00000-0 -47648-1 0  9990,2 51743  53.2177 339.7637 0001727  51.1343 165.0800 15.09706813  1303,6915.232,95.383,538.2909999999998,535.903,0.0
51743.0,STARLINK-3512,PAYLOAD,2022-06-08 22:00:01,15.0906397,0.0001657,53.2176,338.2658,52.3827,176.2445,-0.020891,-0.00320237,0.0,0 STARLINK-3512,1 51743U 22016AF  22159.91668981 -.00320237  00000-0 -20891-1 0  9998,2 51743  53.2176 338.2658 0001657  52.3827 176.2445 15.09063970  1300,6917.196,95.423,540.207,537.915,0.0
51743.0,STARLINK-3512,PAYLOAD,2022-06-09 06:00:00,15.08837846,0.0001526,53.2176,336.767,59.8825,180.4026,-7.2736e-05,-1.445e-05,0.0,0 STARLINK-3512,1 51743U 22016AF  22160.25001157 -.00001445  00000-0 -72736-4 0  9998,2 51743  53.2176 336.7670 0001526  59.8825 180.4026 15.08837846 18098,6917.887,95.438,540.808,538.696,0.0
51743.0,STARLINK-3512,PAYLOAD,2022-06-09 14:00:01,15.08866941,0.0001555,53.2166,335.2762,56.017,195.8787,-0.0057479,-0.00090683,0.0,0 STARLINK-3512,1 51743U 22016AF  22160.58334491 -.00090683  00000-0 -57479-2 0  9991,2 51743  53.2166 335.2762 0001555  56.0170 195.8787 15.08866941  1305,6917.7980000000025,95.436,540.739,538.587,0.0
51743.0,STARLINK-3512,PAYLOAD,2022-06-09 22:00:00,15.08835427,0.0001652,53.2154,333.7874,48.2361,215.2731,0.00080784,0.00012591,0.0,0 STARLINK-3512,1 51743U 22016AF  22160.91667824  .00012591  00000-0  80784-3 0  9993,2 51743  53.2154 333.7874 0001652  48.2361 215.2731 15.08835427  1303,6917.894,95.438,540.9019999999998,538.617,0.0
51743.0,STARLINK-3512,PAYLOAD,2022-06-10 00:00:00,15.08852965,0.0001612,53.215,333.4129,46.382,310.0216,-0.0016901,-0.00027095,0.0,0 STARLINK-3512,1 51743U 22016AF  22161.00001157 -.00027095  00000-0 -16901-2 0  9991,2 51743  53.2150 333.4129 0001612  46.3820 310.0216 15.08852965 18209,6917.840999999999,95.437,540.821,538.591,0.0
51743.0,STARLINK-3512,PAYLOAD,2022-06-10 14:00:01,15.08847241,0.0001514,53.2153,330.7925,53.3466,233.3385,-0.00095433,-0.00015447,0.0,0 STARLINK-3512,1 51743U 22016AF  22161.58334491 -.00015447  00000-0 -95433-3 0  9990,2 51743  53.2153 330.7925 0001514  53.3466 233.3385 15.08847241  1309,6917.858,95.437,540.771,538.6759999999998,0.0
51743.0,STARLINK-3512,PAYLOAD,2022-06-10 22:00:00,15.08816391,0.0001664,53.2152,329.2974,45.9274,252.3563,0.0031946,0.00050889,0.0,0 STARLINK-3512,1 51743U 22016AF  22161.91667824  .00050889  00000-0  31946-2 0  9991,2 51743  53.2152 329.2974 0001664  45.9274 252.3563 15.08816391 18348,6917.953,95.439,540.969,538.6659999999998,0.0
51743.0,STARLINK-3512,PAYLOAD,2022-06-11 14:00:01,15.08869531,0.0001592,53.2155,326.3029,52.1272,269.3476,-0.0011106,-0.00017934,0.0,0 STARLINK-3512,1 51743U 22016AF  22162.58334491 -.00017934  00000-0 -11106-2 0  9998,2 51743  53.2155 326.3029 0001592  52.1272 269.3476 15.08869531 18444,6917.79,95.436,540.756,538.554,0.0
51743.0,STARLINK-3512,PAYLOAD,2022-06-11 22:00:00,15.08852657,0.000175,53.2154,324.8076,46.2098,286.8893,0.00097967,0.00015343,0.0,0 STARLINK-3512,1 51743U 22016AF  22162.91667824  .00015343  00000-0  97967-3 0  9994,2 51743  53.2154 324.8076 0001750  46.2098 286.8893 15.08852657  1309,6917.842,95.437,540.9169999999998,538.496,0.0
